STARLINK2A_L_00006004-01
1 60959U 23532PE  26070.40770833  .00000000  00000+0  00000-0 0  9990
2 60959  43.0000  38.5714 0000000   0.0000   1.2857 15.14334402    17
STARLINK2A_L_00006004-02
1 60960U 23115CQ  26070.40770833  .00000000  00000+0  00000-0 0  9999
2 60960  43.0000  38.5714 0000000   0.0000   4.2857 15.14334402    12
STARLINK2A_L_00006004-03
1 60961U 23726KB  26070.40770833  .00000000  00000+0  00000-0 0  9998
2 60961  43.0000  38.5714 0000000   0.0000   7.2857 15.14334402    16
STARLINK2A_L_00006004-04
1 60962U 25312BO  26070.40770833  .00000000  00000+0  00000-0 0  9992
2 60962  43.0000  38.5714 0000000   0.0000  10.2857 15.14334402    11
STARLINK2A_L_00006004-05
1 60963U 24661PL  26070.40770833  .00000000  00000+0  00000-0 0  9999
2 60963  43.0000  38.5714 0000000   0.0000  13.2857 15.14334402    15
STARLINK2A_L_00006004-06
1 60964U 22125FM  26070.40770833  .00000000  00000+0  00000-0 0  9993
2 60964  43.0000  38.5714 0000000   0.0000  16.2857 15.14334402    19
STARLINK2A_L_00006004-07
1 60965U 25596PE  26070.40770833  .00000000  00000+0  00000-0 0  9999
2 60965  43.0000  38.5714 0000000   0.0000  19.2857 15.14334402    13
STARLINK2A_L_00006004-08
1 60966U 24373JZ  26070.40770833  .00000000  00000+0  00000-0 0  9992
2 60966  43.0000  38.5714 0000000   0.0000  22.2857 15.14334402    18
STARLINK2A_L_00006004-09
1 60967U 24476PO  26070.40770833  .00000000  00000+0  00000-0 0  9997
2 60967  43.0000  38.5714 0000000   0.0000  25.2857 15.14334402    12
STARLINK2A_L_00006004-10
1 60968U 22726TJ  26070.40770833  .00000000  00000+0  00000-0 0  9994
2 60968  43.0000  38.5714 0000000   0.0000  28.2857 15.14334402    16
STARLINK2A_L_00006004-11
1 60969U 23239JA  26070.40770833  .00000000  00000+0  00000-0 0  9995
2 60969  43.0000  38.5714 0000000   0.0000  31.2857 15.14334402    11
STARLINK2A_L_00006004-12
1 60970U 26863BX  26070.40770833  .00000000  00000+0  00000-0 0  9993
2 60970  43.0000  38.5714 0000000   0.0000  34.2857 15.14334402    16
STARLINK2A_L_00006004-13
1 60971U 26812DV  26070.40770833  .00000000  00000+0  00000-0 0  9998
2 60971  43.0000  38.5714 0000000   0.0000  37.2857 15.14334402    10
STARLINK2A_L_00006004-14
1 60972U 22939LR  26070.40770833  .00000000  00000+0  00000-0 0  9995
2 60972  43.0000  38.5714 0000000   0.0000  40.2857 15.14334402    15
STARLINK2A_L_00006004-15
1 60973U 22945FR  26070.40770833  .00000000  00000+0  00000-0 0  9993
2 60973  43.0000  38.5714 0000000   0.0000  43.2857 15.14334402    19
STARLINK2A_L_00006004-16
1 60974U 26008PI  26070.40770833  .00000000  00000+0  00000-0 0  9998
2 60974  43.0000  38.5714 0000000   0.0000  46.2857 15.14334402    13
STARLINK2A_L_00006004-17
1 60975U 25912KS  26070.40770833  .00000000  00000+0  00000-0 0  9992
2 60975  43.0000  38.5714 0000000   0.0000  49.2857 15.14334402    17
STARLINK2A_L_00006004-18
1 60976U 26697IV  26070.40770833  .00000000  00000+0  00000-0 0  9994
2 60976  43.0000  38.5714 0000000   0.0000  52.2857 15.14334402    12
STARLINK2A_L_00006004-19
1 60977U 26949NL  26070.40770833  .00000000  00000+0  00000-0 0  9995
2 60977  43.0000  38.5714 0000000   0.0000  55.2857 15.14334402    16
STARLINK2A_L_00006004-20
1 60978U 23722HX  26070.40770833  .00000000  00000+0  00000-0 0  9992
2 60978  43.0000  38.5714 0000000   0.0000  58.2857 15.14334402    10
STARLINK2A_L_00006004-21
1 60979U 25179ZW  26070.40770833  .00000000  00000+0  00000-0 0  9991
2 60979  43.0000  38.5714 0000000   0.0000  61.2857 15.14334402    15
STARLINK2A_L_00006004-22
1 60980U 26512OX  26070.40770833  .00000000  00000+0  00000-0 0  9995
2 60980  43.0000  38.5714 0000000   0.0000  64.2857 15.14334402    10
STARLINK2A_L_00006004-23
1 60981U 25881RF  26070.40770833  .00000000  00000+0  00000-0 0  9994
2 60981  43.0000  38.5714 0000000   0.0000  67.2857 15.14334402    14
STARLINK2A_L_00006004-24
1 60982U 22260DX  26070.40770833  .00000000  00000+0  00000-0 0  9993
2 60982  43.0000  38.5714 0000000   0.0000  70.2857 15.14334402    19
STARLINK2A_L_00006004-25
1 60983U 26347BL  26070.40770833  .00000000  00000+0  00000-0 0  9994
2 60983  43.0000  38.5714 0000000   0.0000  73.2857 15.14334402    13
STARLINK2A_L_00006004-26
1 60984U 24035UR  26070.40770833  .00000000  00000+0  00000-0 0  9997
2 60984  43.0000  38.5714 0000000   0.0000  76.2857 15.14334402    17
STARLINK2A_L_00006004-27
1 60985U 25133MV  26070.40770833  .00000000  00000+0  00000-0 0  9998
2 60985  43.0000  38.5714 0000000   0.0000  79.2857 15.14334402    11
STARLINK2A_L_00006004-28
1 60986U 25263UU  26070.40770833  .00000000  00000+0  00000-0 0  9993
2 60986  43.0000  38.5714 0000000   0.0000  82.2857 15.14334402    16
STARLINK2A_L_00006004-29
1 60987U 25319YV  26070.40770833  .00000000  00000+0  00000-0 0  9996
2 60987  43.0000  38.5714 0000000   0.0000  85.2857 15.14334402    10
STARLINK2A_L_00006004-30
1 60988U 23140EJ  26070.40770833  .00000000  00000+0  00000-0 0  9997
2 60988  43.0000  38.5714 0000000   0.0000  88.2857 15.14334402    14
STARLINK2A_L_00006004-31
1 60989U 26511RN  26070.40770833  .00000000  00000+0  00000-0 0  9993
2 60989  43.0000  38.5714 0000000   0.0000  91.2857 15.14334402    19
STARLINK2A_L_00006004-32
1 60990U 22354IN  26070.40770833  .00000000  00000+0  00000-0 0  9996
2 60990  43.0000  38.5714 0000000   0.0000  94.2857 15.14334402    14
STARLINK2A_L_00006004-33
1 60991U 24510MP  26070.40770833  .00000000  00000+0  00000-0 0  9993
2 60991  43.0000  38.5714 0000000   0.0000  97.2857 15.14334402    18
STARLINK2A_L_00006004-34
1 60992U 22055ZH  26070.40770833  .00000000  00000+0  00000-0 0  9996
2 60992  43.0000  38.5714 0000000   0.0000 100.2857 15.14334402    14
STARLINK2A_L_00006004-35
1 60993U 25786BK  26070.40770833  .00000000  00000+0  00000-0 0  9991
2 60993  43.0000  38.5714 0000000   0.0000 103.2857 15.14334402    18
STARLINK2A_L_00006004-36
1 60994U 23576GS  26070.40770833  .00000000  00000+0  00000-0 0  9997
2 60994  43.0000  38.5714 0000000   0.0000 106.2857 15.14334402    12
STARLINK2A_L_00006004-37
1 60995U 23755SE  26070.40770833  .00000000  00000+0  00000-0 0  9997
2 60995  43.0000  38.5714 0000000   0.0000 109.2857 15.14334402    16
STARLINK2A_L_00006004-38
1 60996U 23868DS  26070.40770833  .00000000  00000+0  00000-0 0  9993
2 60996  43.0000  38.5714 0000000   0.0000 112.2857 15.14334402    11
STARLINK2A_L_00006004-39
1 60997U 25819WH  26070.40770833  .00000000  00000+0  00000-0 0  9992
2 60997  43.0000  38.5714 0000000   0.0000 115.2857 15.14334402    15
STARLINK2A_L_00006004-40
1 60998U 25085DH  26070.40770833  .00000000  00000+0  00000-0 0  9998
2 60998  43.0000  38.5714 0000000   0.0000 118.2857 15.14334402    19
STARLINK2A_L_00006004-41
1 60999U 24692TI  26070.40770833  .00000000  00000+0  00000-0 0  9992
2 60999  43.0000  38.5714 0000000   0.0000 121.2857 15.14334402    14
STARLINK2A_L_00006004-42
1 61000U 25280PN  26070.40770833  .00000000  00000+0  00000-0 0  9990
2 61000  43.0000  38.5714 0000000   0.0000 124.2857 15.14334402    11
STARLINK2A_L_00006004-43
1 61001U 25300BD  26070.40770833  .00000000  00000+0  00000-0 0  9994
2 61001  43.0000  38.5714 0000000   0.0000 127.2857 15.14334402    15
STARLINK2A_L_00006004-44
1 61002U 22219JT  26070.40770833  .00000000  00000+0  00000-0 0  9991
2 61002  43.0000  38.5714 0000000   0.0000 130.2857 15.14334402    10
STARLINK2A_L_00006004-45
1 61003U 22688QB  26070.40770833  .00000000  00000+0  00000-0 0  9992
2 61003  43.0000  38.5714 0000000   0.0000 133.2857 15.14334402    14
STARLINK2A_L_00006004-46
1 61004U 25289JA  26070.40770833  .00000000  00000+0  00000-0 0  9993
2 61004  43.0000  38.5714 0000000   0.0000 136.2857 15.14334402    18
STARLINK2A_L_00006004-47
1 61005U 25636XF  26070.40770833  .00000000  00000+0  00000-0 0  9990
2 61005  43.0000  38.5714 0000000   0.0000 139.2857 15.14334402    12
STARLINK2A_L_00006004-48
1 61006U 22788MP  26070.40770833  .00000000  00000+0  00000-0 0  9996
2 61006  43.0000  38.5714 0000000   0.0000 142.2857 15.14334402    17
STARLINK2A_L_00006004-49
1 61007U 24156AI  26070.40770833  .00000000  00000+0  00000-0 0  9998
2 61007  43.0000  38.5714 0000000   0.0000 145.2857 15.14334402    11
STARLINK2A_L_00006004-50
1 61008U 26476AK  26070.40770833  .00000000  00000+0  00000-0 0  9996
2 61008  43.0000  38.5714 0000000   0.0000 148.2857 15.14334402    15
STARLINK2A_L_00006004-51
1 61009U 25041UK  26070.40770833  .00000000  00000+0  00000-0 0  9994
2 61009  43.0000  38.5714 0000000   0.0000 151.2857 15.14334402    10
STARLINK2A_L_00006004-52
1 61010U 22872SB  26070.40770833  .00000000  00000+0  00000-0 0  9995
2 61010  43.0000  38.5714 0000000   0.0000 154.2857 15.14334402    15
STARLINK2A_L_00006004-53
1 61011U 22523OO  26070.40770833  .00000000  00000+0  00000-0 0  9999
2 61011  43.0000  38.5714 0000000   0.0000 157.2857 15.14334402    19
STARLINK2A_L_00006004-54
1 61012U 22612HP  26070.40770833  .00000000  00000+0  00000-0 0  9999
2 61012  43.0000  38.5714 0000000   0.0000 160.2857 15.14334402    14
STARLINK2A_L_00006004-55
1 61013U 26751AQ  26070.40770833  .00000000  00000+0  00000-0 0  9998
2 61013  43.0000  38.5714 0000000   0.0000 163.2857 15.14334402    18
STARLINK2A_L_00006004-56
1 61014U 24649YA  26070.40770833  .00000000  00000+0  00000-0 0  9993
2 61014  43.0000  38.5714 0000000   0.0000 166.2857 15.14334402    12
STARLINK2A_L_00006004-57
1 61015U 26979FC  26070.40770833  .00000000  00000+0  00000-0 0  9992
2 61015  43.0000  38.5714 0000000   0.0000 169.2857 15.14334402    16
STARLINK2A_L_00006004-58
1 61016U 23407IR  26070.40770833  .00000000  00000+0  00000-0 0  9996
2 61016  43.0000  38.5714 0000000   0.0000 172.2857 15.14334402    11
STARLINK2A_L_00006004-59
1 61017U 26949TU  26070.40770833  .00000000  00000+0  00000-0 0  9991
2 61017  43.0000  38.5714 0000000   0.0000 175.2857 15.14334402    15
STARLINK2A_L_00006004-60
1 61018U 23331XN  26070.40770833  .00000000  00000+0  00000-0 0  9994
2 61018  43.0000  38.5714 0000000   0.0000 178.2857 15.14334402    19
